#dP2018  1 22  0  0  0.00000000      96 __u+U IGS08 FIT  IAC
## 1985  86400.00000000   900.00000000 58140 0.0000000000000
+   88   C01C02C03C04C05C06C07C08C09C10C11C12C13C14E01E02E03
+        E04E05E07E08E09E11E12E14E18E19E24E26E30G01G02G03G04
+        G05G06G07G08G09G10G11G12G13G14G15G16G17G18G19G20G21
+        G22G23G24G25G26G27G28G29G30G31G32J01J02J03R01R02R03
+        R04R05R06R07R08R09R10R11R13R14R15R16R17R18R19R20R21
+        R22R23R24  0  0  0  0  0  0  0  0  0  0  0  0  0  0
++        12 12 12 12 12  8  8  8  8  8  8  8  8  7  7  7  7
++         7  7  7  7  7  7  7  7  7  7  7  7  7  3  3  3 10
++         6  3  3  3  3  3  3  3  3  3  3  3  3  3  3  3  3
++         3  3  3  3  3  3  3  3  6  6  6  8 12 13  5  5  5
++         5  6  5  5  5  5  5  5  5  5  5  5  5  5  5  5  5
++         5  5  6  0  0  0  0  0  0  0  0  0  0  0  0  0  0
%c M  cc GPS ccc cccc cccc cccc cccc ccccc ccccc ccccc ccccc
%c cc cc ccc ccc cccc cccc cccc cccc ccccc ccccc ccccc ccccc
%f  1.2500000  1.025000000  0.00000000000  0.000000000000000
%f  0.0000000  0.000000000  0.00000000000  0.000000000000000
%i    0    0    0    0      0      0      0      0         0
%i    0    0    0    0      0      0      0      0         0
/* INFORMATION & ANALYSIS CENTER (IAC)            FINAL DATA
/* S/V CLOCKS ARE ALIGNED TO GPS & GLONASS TIME RESPECTIVELY
/* USING THE BROADCAST EPHEMERIS                            
/* PCV:IGS14_1984 OL/AL:FES2004  NONE     YN ORB:CoN CLK:CoN
*  2018 01 22  1 15  0.00000000
PC01 -32270.855788  27108.618323  -1102.514878    269.511846
PC02   4373.575807  41923.302849    692.612578   -171.066461
PC03 -14746.894789  39498.746100   -644.279260   -239.696977
PC04 -39615.295484  14357.598372   -689.709076   -180.861965
PC05  21880.009191  36034.571922    997.023240   -127.263173
PC06  -7384.547809  27318.181468  31578.799424   -676.695421
PC07 -23756.096580  24200.102455 -25178.396126   -283.160207
PC08 -17425.802147  37976.428873  -4670.085253    128.766038
PC09   5232.614497  35094.864601  23145.511249   -479.488016
PC10  -7704.894995  26298.847693 -31999.674656     39.240697
PC11   3937.578095 -26465.383601   8128.906015   -361.732539
PC12  13646.045856 -11482.818403  21549.499442    373.266550
PC13  -8117.668071  40252.096886   9048.051036   -159.980899
PC14   4627.026334 -15499.964877 -22688.290283    155.760628
PE01  19054.718892   9098.274856 -20743.048423   -258.643469
PE02 -19057.960117  -9094.397992  20739.722764      2.410343
PE03 -21353.199328 -20426.175063   1804.962116      9.797948
PE04  22765.931008   4980.094824 -18255.855621     39.366625
PE05  -7420.247452 -23941.591396 -15747.296205    337.083006
PE07 -10822.953905  13443.198043  24049.347611     97.818761
PE08 -22749.945960  -4863.486880  18304.446275   6656.773031
PE09  10629.961994 -13406.964777 -24153.922907   6896.834850
PE11  14070.969775 -23770.630866  10620.224288   1852.550050
PE12  17675.609888  -5126.006236  23190.261759   3334.358614
PE14 -20817.358690  -5269.612391 -22792.689808   6643.916393
PE18  15235.505506  15234.828834  13576.991224   6486.124559
PE19  20567.138774  21294.232689     35.509823     18.600167
PE24  21714.947601 -14640.869171  13809.245506   6903.893558
PE26  -2444.563555  28407.501590   7946.202427   6358.962737
PE30 -28936.679931   3915.815087   4800.460514   6140.743409
PG01  12212.525921 -21974.333306  -8241.557943    -24.721897
PG02 -20230.120731  11080.533981 -12369.477359    221.768973
PG03   6445.855693 -14075.186815 -21596.363066     -5.621922
PG04  24960.336389   8710.476632  -4081.513313 999999.999999
PG05 -23984.504147   3534.311954  10981.957960    -16.329849
PG06 -17464.279069   -930.104744 -19960.849108    414.859606
PG07  -1699.019968 -18130.465532  19380.143294    248.129137
PG08   8123.348913 -16658.015973  19034.346279    -88.470184
PG09  -7995.966549 -25307.372011   -924.189574    495.056202
PG10  22610.923888  10953.146530   8872.074464    149.476278
PG11   8480.415080 -25231.683966    305.942458   -734.587068
PG12  -9403.163720  12287.516010 -21728.878391    354.301382
PG13 -13272.867178   8328.071508  21328.060899    -95.417482
PG14  15928.611257   8931.406555 -19067.677659    -92.766187
PG15  -6851.690078  18103.722030  17814.858665   -357.300908
PG16  23921.454113  -1092.670364  11796.592889     33.675010
PG17 -14245.089100 -17705.694225 -13477.501531   -129.159714
PG18  13335.536596  15456.954791  17676.394512    633.491798
PG19 -15544.630176 -10004.456267 -19271.408194   -462.183983
PG20  -8233.802989  14574.458063  20467.317008    498.920088
PG21   5069.480327  17214.702883  20372.394571   -439.167952
PG22  14256.665856 -12062.335814 -18653.415349   -265.005644
PG23    753.528414 -23558.560548 -11547.583007   -219.069301
PG24 -13635.452523  22104.116305  -4894.765668    -45.096222
PG25   5444.352274  15656.604453 -20968.256286   -526.178956
PG26  26284.008631   4062.511877   1311.756776   -278.755647
PG27  14511.431863  -3363.439707  21938.267184    363.780442
PG28 -19138.964826 -14188.336516  12328.129676    681.919203
PG29   3545.999560  25888.627387  -4823.880621    507.731417
PG30  -9710.967145 -12225.140482  21481.836253    110.498324
PG31  18366.841531     74.494853 -19285.364427    147.031854
PG32  15851.695992  16122.128578 -13970.482646   -533.005143
PJ01 -28897.157728  22624.827586  25869.171206   -143.637281
PJ02 -34889.276652  23167.376372   -129.099691     -0.003882
PJ03 -19250.313171  24206.960079 -23981.671503 999999.999999
PR01 -21264.237159 -13826.773447   2776.452228     20.996799
PR02 -16525.214024   -890.790937  19423.316920    291.356161
PR03  -2104.074881  11854.496545  22524.603290    122.017755
PR04  13909.240956  17609.465057  12152.525643    246.906046
PR05  21515.640236  12945.509461  -4482.751959   -234.119358
PR06  16152.139689   -104.027021 -19769.259676    125.594454
PR07   1783.366084 -12019.101637 -22396.849028    -28.091119
PR08 -13437.888809 -17591.824056 -12628.734498    -27.007146
PR09  23753.554830  -9124.947470  -1242.411522     47.570619
PR10  14621.366382 -13793.618003  15637.110409     16.434418
PR11  -3425.062717 -10452.589517  23028.459034    -19.990136
PR13 -23464.947061   9993.456455    414.240997     -6.743221
PR14 -14834.692385  13996.022796 -15311.213045     24.042886
PR15   -305.186147  11435.026421 -22779.309767     -5.496501
PR16  18758.756233    791.247814 -17348.764922     83.790394
PR17  -6712.718055  23236.646922  -8035.956544    102.918098
PR18   1141.557731  23883.915785   8991.532713    181.956467
PR19   8228.809593  11072.449562  21461.902235    -42.097076
PR20  11003.393537  -9295.741317  21050.488696   -324.283529
PR21   6577.692525 -23373.298652   7862.303226     19.820337
PR22  -1933.901826 -23020.311677 -10661.805014    -12.260703
PR23  -9380.809704  -7505.604332 -22502.220034    131.665229
PR24 -10835.831895  10178.474458 -20749.910908   -161.407554
EOF
